{"type":"FeatureCollection","attribution":"გზები და ნაგებობები: © OpenStreetMap-ის მონაწილეები (ODbL)","features":[{"type":"Feature","properties":{"layer":"plot","cad":"01.72.16.097.011","adr_num":"","street":"კედრის ქუჩა","area":"599.00"},"geometry":{"type":"Polygon","coordinates":[[[44.72023324796692,41.744307072808276],[44.72010214383901,41.74441093185258],[44.720086536002434,41.744423296550096],[44.71992889129498,41.74450905950822],[44.71986527827699,41.74454366537365],[44.71972034766884,41.74462251099594],[44.71953786182377,41.74471769274458],[44.719492621155815,41.74473860297961],[44.7194905122078,41.74473654332137],[44.71945391759663,41.7447008067488],[44.71944257767007,41.74468973280597],[44.71950418896672,41.744659188975504],[44.719572922640005,41.74462473001319],[44.71971902453945,41.74455148351901],[44.719873865725454,41.74447385459348],[44.71998747374935,41.7444024200154],[44.72002917249229,41.74437506541143],[44.72001943215101,41.74436092851932],[44.72002361336032,41.744355500246016],[44.719995880060615,41.74432776118449],[44.72003016405422,41.744243709798056],[44.72023324796692,41.744307072808276]]]}},{"type":"Feature","properties":{"layer":"plot","cad":"01.72.16.097.059","adr_num":"3","street":"კედრის III გასასვლელი","area":"299.00"},"geometry":{"type":"Polygon","coordinates":[[[44.71955888943712,41.74608575374381],[44.71969751740442,41.74603160562951],[44.71975586232501,41.746242460788],[44.719617233951844,41.7462966089695],[44.71955888943712,41.74608575374381]]]}},{"type":"Feature","properties":{"layer":"plot","cad":"01.72.16.097.090","adr_num":"6","street":"კედრის II გასასვლელი","area":"522.00"},"geometry":{"type":"Polygon","coordinates":[[[44.71926393727441,41.74581253763858],[44.71896514804188,41.74592887102978],[44.718862152250054,41.74577896504782],[44.71916158991656,41.74566357654466],[44.71926393727441,41.74581253763858]]]}},{"type":"Feature","properties":{"layer":"plot","cad":"72.16.17.352","adr_num":"","street":"კედრის ქუჩა","area":"3000.00"},"geometry":{"type":"Polygon","coordinates":[[[44.71944257767007,41.74468973280597],[44.71912788260661,41.7443761119608],[44.71944550338818,41.744289230333976],[44.719446937417736,41.744231386006874],[44.719815253885486,41.74408648386288],[44.71999544628537,41.743974179059414],[44.72012095670875,41.744021117085154],[44.720034706808384,41.74423257102977],[44.719995880060615,41.74432776118449],[44.72002917249229,41.74437506541143],[44.719873865725454,41.74447385459348],[44.71950418896672,41.744659188975504],[44.71944257767007,41.74468973280597]]]}},{"type":"Feature","properties":{"layer":"plot","cad":"72.16.21.042","adr_num":"12","street":"კედრის I გასასვლელი","area":"413.00"},"geometry":{"type":"Polygon","coordinates":[[[44.71911323791251,41.74501928541748],[44.719414813111705,41.74490980198477],[44.71951704738172,41.74500999749138],[44.71918850768656,41.745136602559974],[44.71911323791251,41.74501928541748]]]}},{"type":"Feature","properties":{"layer":"plot","cad":"72.16.21.043","adr_num":"10","street":"კედრის I გასასვლელი","area":"413.00"},"geometry":{"type":"Polygon","coordinates":[[[44.71880890799698,41.74512976740269],[44.71911323791251,41.74501928541748],[44.71918850768656,41.745136602559974],[44.718891590367015,41.74525102094651],[44.71880890799698,41.74512976740269]]]}},{"type":"Feature","properties":{"layer":"plot","cad":"72.16.21.044","adr_num":"8","street":"კედრის I გასასვლელი","area":"413.00"},"geometry":{"type":"Polygon","coordinates":[[[44.71852077523603,41.745234368821265],[44.71880890799698,41.74512976740269],[44.718891590367015,41.74525102094651],[44.718604051909175,41.74536182358199],[44.71852077523603,41.745234368821265]]]}},{"type":"Feature","properties":{"layer":"plot","cad":"72.16.21.045","adr_num":"6","street":"კედრის I გასასვლელი","area":"413.00"},"geometry":{"type":"Polygon","coordinates":[[[44.718243501008125,41.74533502673219],[44.71852077523603,41.745234368821265],[44.718604051909175,41.74536182358199],[44.718328009099416,41.74546819518352],[44.718243501008125,41.74533502673219]]]}},{"type":"Feature","properties":{"layer":"plot","cad":"72.16.21.046","adr_num":"35","street":"ლეო კვაჭაძის ქუჩა","area":"500.00"},"geometry":{"type":"Polygon","coordinates":[[[44.717999332532095,41.744950256076464],[44.71777428365672,41.74502901786877],[44.71766648071525,41.7448139185204],[44.71786646467451,41.7447413201713],[44.717983845375734,41.74492585127601],[44.717999332532095,41.744950256076464]]]}},{"type":"Feature","properties":{"layer":"plot","cad":"72.16.21.047","adr_num":"2","street":"კედრის I გასასვლელი","area":"505.00"},"geometry":{"type":"Polygon","coordinates":[[[44.71811883888489,41.7451384184948],[44.71787417659507,41.7452283326366],[44.71777428365672,41.74502901786877],[44.717999332532095,41.744950256076464],[44.71801481970014,41.744974660874675],[44.71811883888489,41.7451384184948]]]}},{"type":"Feature","properties":{"layer":"plot","cad":"72.16.21.050","adr_num":"25","street":"ლეო კვაჭაძის ქუჩა","area":"432.00"},"geometry":{"type":"Polygon","coordinates":[[[44.71868964923668,41.74444247934174],[44.71887086238755,41.74437669215572],[44.7190399795908,41.7445424402491],[44.718809330104285,41.744626174886754],[44.71868964923668,41.74444247934174]]]}},{"type":"Feature","properties":{"layer":"plot","cad":"72.16.21.051","adr_num":"27","street":"ლეო კვაჭაძის ქუჩა","area":"433.00"},"geometry":{"type":"Polygon","coordinates":[[[44.71848316478883,41.74451744016477],[44.71868964923668,41.74444247934174],[44.718809330104285,41.744626174886754],[44.71860321019351,41.74470100351063],[44.71848316478883,41.74451744016477]]]}},{"type":"Feature","properties":{"layer":"plot","cad":"72.16.21.052","adr_num":"29","street":"ლეო კვაჭაძის ქუჩა","area":"432.00"},"geometry":{"type":"Polygon","coordinates":[[[44.71827717976163,41.74459221989742],[44.71848316478883,41.74451744016477],[44.71860321019351,41.74470100351063],[44.718397150033276,41.74477581029281],[44.71827717976163,41.74459221989742]]]}},{"type":"Feature","properties":{"layer":"plot","cad":"72.16.21.053","adr_num":"31","street":"ლეო კვაჭაძის ქუჩა","area":"432.00"},"geometry":{"type":"Polygon","coordinates":[[[44.718070505239886,41.744667247963974],[44.71827717976163,41.74459221989742],[44.718397150033276,41.74477581029281],[44.718191808541526,41.74485035456001],[44.718070505239886,41.744667247963974]]]}},{"type":"Feature","properties":{"layer":"plot","cad":"72.16.21.054","adr_num":"4","street":"კედრის I გასასვლელი","area":"494.00"},"geometry":{"type":"Polygon","coordinates":[[[44.718212527545035,41.74528621629943],[44.7182228512244,41.745302486742915],[44.717966742415804,41.74541302438576],[44.71787417659507,41.7452283326366],[44.71811875576656,41.74513844891483],[44.718212527545035,41.74528621629943]]]}},{"type":"Feature","properties":{"layer":"plot","cad":"72.16.21.055","adr_num":"33","street":"ლეო კვაჭაძის ქუჩა","area":"432.00"},"geometry":{"type":"Polygon","coordinates":[[[44.71786646467451,41.7447413201713],[44.718070505239886,41.744667247963974],[44.718191808541526,41.74485035456001],[44.717983845375734,41.74492585127601],[44.71786646467451,41.7447413201713]]]}},{"type":"Feature","properties":{"layer":"plot","cad":"72.16.21.080","adr_num":"","street":"კედრის ქუჩა","area":"1283.00"},"geometry":{"type":"Polygon","coordinates":[[[44.71960297891817,41.744787210509806],[44.719550416437606,41.74473070976271],[44.71953786182377,41.74471769274458],[44.71972034766884,41.74462251099594],[44.720086536002434,41.744423296550096],[44.72023324796692,41.744307072808276],[44.72040250626962,41.74453503999692],[44.71960297891817,41.744787210509806]]]}},{"type":"Feature","properties":{"layer":"plot","cad":"72.16.21.113","adr_num":"13","street":"კედრის I გასასვლელი","area":"404.00"},"geometry":{"type":"Polygon","coordinates":[[[44.7186725629263,41.74512821590399],[44.718444179121825,41.74521112579592],[44.71834515900062,41.74505524388612],[44.71855414895741,41.7449784376055],[44.718571492989675,41.74497206345986],[44.7186725629263,41.74512821590399]]]}},{"type":"Feature","properties":{"layer":"plot","cad":"72.16.21.114","adr_num":"15","street":"კედრის I გასასვლელი","area":"406.00"},"geometry":{"type":"Polygon","coordinates":[[[44.71889983069774,41.7450457099453],[44.7186725629263,41.74512821590399],[44.718571492989675,41.74497206345986],[44.71877341495141,41.74489785511656],[44.71879822752879,41.74488873585069],[44.71889983069774,41.7450457099453]]]}},{"type":"Feature","properties":{"layer":"plot","cad":"72.16.21.115","adr_num":"17","street":"კედრის I გასასვლელი","area":"408.00"},"geometry":{"type":"Polygon","coordinates":[[[44.7191274411911,41.74496308007587],[44.71889983069774,41.7450457099453],[44.71879822752879,41.74488873585069],[44.71899167214632,41.74481764173219],[44.719024398931936,41.74480561447849],[44.7191274411911,41.74496308007587]]]}},{"type":"Feature","properties":{"layer":"plot","cad":"72.16.21.116","adr_num":"19","street":"კედრის I გასასვლელი","area":"412.00"},"geometry":{"type":"Polygon","coordinates":[[[44.719376803470716,41.7448725514499],[44.7191274411911,41.74496308007587],[44.7190243989358,41.74480561357788],[44.71923102384314,41.74472967486358],[44.719376803470716,41.7448725514499]]]}},{"type":"Feature","properties":{"layer":"plot","cad":"72.16.21.117","adr_num":"1","street":"კედრის I გასასვლელი","area":"413.00"},"geometry":{"type":"Polygon","coordinates":[[[44.719024398931936,41.744805614478565],[44.71899167214632,41.74481764173219],[44.71888334896012,41.744650375120465],[44.719078004402796,41.74457970804785],[44.71923102263652,41.74472967576137],[44.719024398931936,41.744805614478565]]]}},{"type":"Feature","properties":{"layer":"plot","cad":"72.16.21.118","adr_num":"3","street":"კედრის I გასასვლელი","area":"418.00"},"geometry":{"type":"Polygon","coordinates":[[[44.71879822752879,41.74488873585069],[44.71877341495141,41.74489785511656],[44.718664966380956,41.74472965576447],[44.71888334896012,41.744650375120465],[44.71899167214632,41.74481764173219],[44.71879822752879,41.74488873585069]]]}},{"type":"Feature","properties":{"layer":"plot","cad":"72.16.21.119","adr_num":"7","street":"კედრის I გასასვლელი","area":"421.00"},"geometry":{"type":"Polygon","coordinates":[[[44.718371808736975,41.745045450083914],[44.71834515900062,41.74505524388612],[44.71833626169725,41.74505851415552],[44.71822702153012,41.74488864254645],[44.718445463001665,41.74480934216589],[44.71855414895741,41.7449784376055],[44.71839736106281,41.745036058903416],[44.718371808736975,41.745045450083914]]]}},{"type":"Feature","properties":{"layer":"plot","cad":"72.16.21.120","adr_num":"5","street":"კედრის I გასასვლელი","area":"422.00"},"geometry":{"type":"Polygon","coordinates":[[[44.71877341495141,41.74489785511656],[44.71855414895741,41.7449784376055],[44.718445463001665,41.74480934216589],[44.718664966380956,41.74472965576447],[44.71877341495141,41.74489785511656]]]}},{"type":"Feature","properties":{"layer":"plot","cad":"72.16.21.636","adr_num":"9","street":"კედრის I გასასვლელი","area":"388.00"},"geometry":{"type":"Polygon","coordinates":[[[44.71833626169725,41.74505851415552],[44.71834515900062,41.74505524388612],[44.71836964313562,41.74509378925038],[44.7181983656309,41.745156734859286],[44.718078191519744,41.74496747382629],[44.71807637704469,41.744963815211506],[44.71807543289448,41.74495997678952],[44.71807538742849,41.7449560739204],[44.71807624374233,41.744952223703336],[44.71807797366634,41.744948542260325],[44.71808052740611,41.74494514025581],[44.71808382634331,41.74494211927668],[44.71808777386631,41.74493957005718],[44.71809224816713,41.7449375697589],[44.71822702153012,41.74488864254645],[44.71833626169725,41.74505851415552]]]}},{"type":"Feature","properties":{"layer":"plot","cad":"72.16.21.701","adr_num":"10","street":"კედრის ქუჩა","area":"602.00"},"geometry":{"type":"Polygon","coordinates":[[[44.71966656383918,41.74521562958268],[44.719430399935696,41.7453067540011],[44.71928732970634,41.74509852080478],[44.71951704738172,41.74500999749138],[44.71962402060129,41.74510603240063],[44.71966656383918,41.74521562958268]]]}},{"type":"Feature","properties":{"layer":"plot","cad":"72.16.21.702","adr_num":"2","street":"კედრის I შესახვევი","area":"520.00"},"geometry":{"type":"Polygon","coordinates":[[[44.71921651701007,41.74538917482097],[44.7190734472879,41.745180942263495],[44.71928732970634,41.74509852080478],[44.719430399935696,41.7453067540011],[44.71921651701007,41.74538917482097]]]}},{"type":"Feature","properties":{"layer":"plot","cad":"72.16.21.703","adr_num":"4","street":"კედრის I შესახვევი","area":"520.00"},"geometry":{"type":"Polygon","coordinates":[[[44.719162653156154,41.74540993144712],[44.71911985575441,41.74542642413881],[44.719002634741834,41.74547159524269],[44.71885956553063,41.74526336242363],[44.7190734472879,41.745180942263495],[44.71921651701007,41.74538917482097],[44.719162653156154,41.74540993144712]]]}},{"type":"Feature","properties":{"layer":"plot","cad":"72.16.21.704","adr_num":"6","street":"კედრის I შესახვევი","area":"520.00"},"geometry":{"type":"Polygon","coordinates":[[[44.719002634741834,41.74547159524269],[44.71878875072538,41.74555401526061],[44.718645682025226,41.745345782179626],[44.71885956553063,41.74526336242363],[44.719002634741834,41.74547159524269]]]}},{"type":"Feature","properties":{"layer":"plot","cad":"72.16.21.705","adr_num":"8","street":"კედრის I შესახვევი","area":"520.00"},"geometry":{"type":"Polygon","coordinates":[[[44.71878875072538,41.74555401526061],[44.718574866163394,41.745636434877426],[44.718431797974276,41.74542820153467],[44.718645682025226,41.745345782179626],[44.71878875072538,41.74555401526061]]]}},{"type":"Feature","properties":{"layer":"plot","cad":"72.16.21.706","adr_num":"10","street":"კედრის I შესახვევი","area":"520.00"},"geometry":{"type":"Polygon","coordinates":[[[44.718574866163394,41.745636434877426],[44.71836098225869,41.745718854096076],[44.71821791458073,41.74551062049168],[44.718431797974276,41.74542820153467],[44.718574866163394,41.745636434877426]]]}},{"type":"Feature","properties":{"layer":"plot","cad":"72.16.21.707","adr_num":"12","street":"კედრის I შესახვევი","area":"626.00"},"geometry":{"type":"Polygon","coordinates":[[[44.71836098225869,41.745718854096076],[44.71839950012631,41.74577491744207],[44.71817442964565,41.74586164669271],[44.71803753158879,41.7455801294843],[44.71821791458073,41.74551062049168],[44.71836098225869,41.745718854096076]]]}},{"type":"Feature","properties":{"layer":"plot","cad":"72.16.21.709","adr_num":"14","street":"კედრის I შესახვევი","area":"399.00"},"geometry":{"type":"Polygon","coordinates":[[[44.71835792372529,41.74597287888129],[44.718319612620476,41.74598753582311],[44.718248646493215,41.746014686532604],[44.71817416340341,41.74586174872009],[44.71839950012631,41.74577491744207],[44.71849854861971,41.745919078475104],[44.71835792372529,41.74597287888129]]]}},{"type":"Feature","properties":{"layer":"plot","cad":"72.16.21.711","adr_num":"16","street":"კედრის I შესახვევი","area":"465.00"},"geometry":{"type":"Polygon","coordinates":[[[44.718602331358824,41.746070131502805],[44.71832779384466,41.7461770192766],[44.71831880843256,41.7461585877303],[44.71824864889864,41.74601468653851],[44.71849854982633,41.74591907757732],[44.718602331358824,41.746070131502805]]]}},{"type":"Feature","properties":{"layer":"plot","cad":"72.16.21.714","adr_num":"","street":"კედრის I შესახვევი","area":"521.00"},"geometry":{"type":"Polygon","coordinates":[[[44.719752113413406,41.74543601485537],[44.7194610277127,41.745548188159326],[44.71936197763107,41.74540402704117],[44.71969054606279,41.74527741074477],[44.719752113413406,41.74543601485537]]]}},{"type":"Feature","properties":{"layer":"plot","cad":"72.16.21.715","adr_num":"3","street":"კედრის I შესახვევი","area":"504.00"},"geometry":{"type":"Polygon","coordinates":[[[44.7194610277127,41.745548188159326],[44.71916158991656,41.74566357654466],[44.71906254152898,41.745519416076476],[44.71936197763107,41.74540402704117],[44.7194610277127,41.745548188159326]]]}},{"type":"Feature","properties":{"layer":"plot","cad":"72.16.21.716","adr_num":"5","street":"კედრის I შესახვევი","area":"504.00"},"geometry":{"type":"Polygon","coordinates":[[[44.718862152250054,41.74577896504782],[44.7187631043578,41.745634804325924],[44.71906254152898,41.745519416076476],[44.71916158991656,41.74566357654466],[44.718862152250054,41.74577896504782]]]}},{"type":"Feature","properties":{"layer":"plot","cad":"72.16.21.717","adr_num":"7","street":"კედრის I შესახვევი","area":"485.00"},"geometry":{"type":"Polygon","coordinates":[[[44.718862152250054,41.74577896504782],[44.7185733851523,41.74589019872869],[44.71848269026529,41.74575819523358],[44.718490572588884,41.74573978070586],[44.7187631043578,41.745634804325924],[44.718862152250054,41.74577896504782]]]}},{"type":"Feature","properties":{"layer":"plot","cad":"72.16.21.718","adr_num":"","street":"კედრის II გასასვლელი","area":"469.00"},"geometry":{"type":"Polygon","coordinates":[[[44.719752113413406,41.74543601485537],[44.719814988187814,41.745597985351395],[44.71956272663011,41.745696204368485],[44.7194610277127,41.745548188159326],[44.719752113413406,41.74543601485537]]]}},{"type":"Feature","properties":{"layer":"plot","cad":"72.16.21.719","adr_num":"4","street":"კედრის II გასასვლელი","area":"519.00"},"geometry":{"type":"Polygon","coordinates":[[[44.71956272663011,41.745696204368485],[44.71926393727441,41.74581253763858],[44.71916158991656,41.74566357654466],[44.7194610277127,41.745548188159326],[44.71956272663011,41.745696204368485]]]}},{"type":"Feature","properties":{"layer":"plot","cad":"72.16.21.721","adr_num":"9","street":"კედრის I შესახვევი","area":"507.00"},"geometry":{"type":"Polygon","coordinates":[[[44.71896514804188,41.74592887102978],[44.71867702819529,41.74604104778818],[44.7185733851523,41.74589019872869],[44.718862152250054,41.74577896504782],[44.71896514804188,41.74592887102978]]]}},{"type":"Feature","properties":{"layer":"plot","cad":"72.16.21.722","adr_num":"7","street":"კედრის II გასასვლელი","area":"337.00"},"geometry":{"type":"Polygon","coordinates":[[[44.719371370573604,41.746087888147066],[44.719197368262584,41.7461558518127],[44.71913902524778,41.745944996373325],[44.7192776532617,41.74589084876444],[44.719371370573604,41.746087888147066]]]}},{"type":"Feature","properties":{"layer":"plot","cad":"72.16.21.723","adr_num":"6","street":"კედრის II გასასვლელი","area":"299.00"},"geometry":{"type":"Polygon","coordinates":[[[44.719509998701795,41.74603374025963],[44.719371370573604,41.746087888147066],[44.7192776532617,41.74589084876444],[44.71941628103937,41.74583670188768],[44.719509998701795,41.74603374025963]]]}},{"type":"Feature","properties":{"layer":"plot","cad":"72.16.21.724","adr_num":"3","street":"კედრის II გასასვლელი","area":"299.00"},"geometry":{"type":"Polygon","coordinates":[[[44.71964862659391,41.745979593104266],[44.719509998701795,41.74603374025963],[44.71941628103937,41.74583670188768],[44.71955490858869,41.74578255394182],[44.71964862659391,41.745979593104266]]]}},{"type":"Feature","properties":{"layer":"plot","cad":"72.16.21.725","adr_num":"1","street":"კედრის II გასასვლელი","area":"299.00"},"geometry":{"type":"Polygon","coordinates":[[[44.71978725425749,41.74592544487979],[44.71964862659391,41.745979593104266],[44.71955490858869,41.74578255394182],[44.71969353590183,41.74572840672817],[44.71978725425749,41.74592544487979]]]}},{"type":"Feature","properties":{"layer":"plot","cad":"72.16.21.726","adr_num":"16","street":"კედრის II გასასვლელი","area":"309.00"},"geometry":{"type":"Polygon","coordinates":[[[44.719924252875984,41.74587193291816],[44.71978725425749,41.74592544487979],[44.71969353590183,41.74572840672817],[44.719843018892924,41.745670018272584],[44.719924252875984,41.74587193291816]]]}},{"type":"Feature","properties":{"layer":"plot","cad":"72.16.21.729","adr_num":"","street":"კედრის IV გასასვლელი","area":"404.00"},"geometry":{"type":"Polygon","coordinates":[[[44.71951405954727,41.74668796316236],[44.71934739186888,41.74669803589988],[44.719291226567954,41.74649505443866],[44.719480822860376,41.74642099940658],[44.71951405954727,41.74668796316236]]]}},{"type":"Feature","properties":{"layer":"plot","cad":"72.16.21.730","adr_num":"3","street":"კედრის IV გასასვლელი","area":"495.00"},"geometry":{"type":"Polygon","coordinates":[[[44.719668989412895,41.746374981334284],[44.7196790043713,41.74664400144279],[44.71967977799808,41.74667766809529],[44.71951405954727,41.74668796316236],[44.719480822860376,41.74642099940658],[44.719669109149336,41.74634745606798],[44.719668989412895,41.746374981334284]]]}},{"type":"Feature","properties":{"layer":"plot","cad":"72.16.21.734","adr_num":"5","street":"კედრის III გასასვლელი","area":"299.00"},"geometry":{"type":"Polygon","coordinates":[[[44.71942026124137,41.74613990078886],[44.71955888943712,41.74608575374381],[44.719617233951844,41.7462966089695],[44.71947860535023,41.746350756081824],[44.71942026124137,41.74613990078886]]]}},{"type":"Feature","properties":{"layer":"plot","cad":"72.16.21.750","adr_num":"2","street":"კედრის ქუჩა","area":"411.00"},"geometry":{"type":"Polygon","coordinates":[[[44.720008876525206,41.74533696512741],[44.71983798632948,41.745390989930954],[44.71973620574227,41.7451295253803],[44.719868286862535,41.74508774488281],[44.720008876525206,41.74533696512741]]]}},{"type":"Feature","properties":{"layer":"plot","cad":"72.16.21.751","adr_num":"4","street":"კედრის I ჩიხი","area":"401.00"},"geometry":{"type":"Polygon","coordinates":[[[44.72015662087818,41.7452901082601],[44.72007968987104,41.74531446509901],[44.720008876525206,41.74533696512741],[44.719868286862535,41.74508774488281],[44.72001609409451,41.74504097841756],[44.72015662087818,41.7452901082601]]]}},{"type":"Feature","properties":{"layer":"plot","cad":"72.16.21.752","adr_num":"6","street":"კედრის I ჩიხი","area":"401.00"},"geometry":{"type":"Polygon","coordinates":[[[44.72001609409451,41.74504097841756],[44.72016421183161,41.74499411344041],[44.72030441284661,41.745243315268205],[44.720156618472934,41.7452901082542],[44.72001609409451,41.74504097841756]]]}},{"type":"Feature","properties":{"layer":"plot","cad":"72.16.21.754","adr_num":"10","street":"კედრის I ჩიხი","area":"503.00"},"geometry":{"type":"Polygon","coordinates":[[[44.720637093329216,41.74513798363878],[44.720555676518686,41.74516376291363],[44.720511841029726,41.74517764155392],[44.72047079597295,41.745190637068696],[44.72033028958131,41.744941566201],[44.72053546929384,41.74487664716289],[44.720569584024,41.7449644048219],[44.720637093329216,41.74513798363878]]]}},{"type":"Feature","properties":{"layer":"plot","cad":"72.16.21.757","adr_num":"1","street":"კედრის I ჩიხი","area":"400.00"},"geometry":{"type":"Polygon","coordinates":[[[44.71990490598691,41.744985118581106],[44.71976461791428,41.744736230389904],[44.71991244303738,41.744689606409864],[44.7200527201221,41.744938363793786],[44.71990490598691,41.744985118581106]]]}},{"type":"Feature","properties":{"layer":"plot","cad":"72.16.21.824","adr_num":"","street":"კედრის ქუჩა","area":"2500.00"},"geometry":{"type":"Polygon","coordinates":[[[44.720753983533676,41.745441040870205],[44.72087139218572,41.74574377497277],[44.72007438765859,41.74599550177821],[44.71995645805744,41.745693290718194],[44.720753983533676,41.745441040870205]]]}},{"type":"Feature","properties":{"layer":"plot","cad":"72.16.21.825","adr_num":"","street":"კედრის ქუჩა","area":"2500.00"},"geometry":{"type":"Polygon","coordinates":[[[44.720753983533676,41.745441040870205],[44.71995645805744,41.745693290718194],[44.71983858306092,41.74539122106588],[44.72063666757223,41.745138540140466],[44.720753983533676,41.745441040870205]]]}},{"type":"Feature","properties":{"layer":"plot","cad":"72.16.21.836","adr_num":"","street":"კედრის II გასასვლელი","area":"563.00"},"geometry":{"type":"Polygon","coordinates":[[[44.71874699483379,41.74646223311991],[44.71880789036117,41.74659260885192],[44.718701086978086,41.74661415801182],[44.71874810299535,41.746747620736116],[44.71856100127873,41.746758991570104],[44.71846540052872,41.74655293717937],[44.71874699483379,41.74646223311991]]]}},{"type":"Feature","properties":{"layer":"plot","cad":"72.16.21.837","adr_num":"","street":"კედრის IV გასასვლელი","area":"500.00"},"geometry":{"type":"Polygon","coordinates":[[[44.71880789036117,41.74659260885192],[44.719024979416446,41.746548808092676],[44.71908894495616,41.74672690514859],[44.71874810299535,41.746747620736116],[44.718701086978086,41.74661415801182],[44.71880789036117,41.74659260885192]]]}},{"type":"Feature","properties":{"layer":"plot","cad":"72.16.21.842","adr_num":"9","street":"კედრის III გასასვლელი","area":"495.00"},"geometry":{"type":"Polygon","coordinates":[[[44.7192029155747,41.746175898860464],[44.71899369833876,41.746240949739594],[44.7189104073682,41.7460336170792],[44.71913902524778,41.745944996373325],[44.7192029155747,41.746175898860464]]]}},{"type":"Feature","properties":{"layer":"plot","cad":"72.16.21.843","adr_num":"11","street":"კედრის II გასასვლელი","area":"490.00"},"geometry":{"type":"Polygon","coordinates":[[[44.71876699045777,41.746316031818786],[44.71867717350318,41.74612402563658],[44.7189104073682,41.7460336170792],[44.71899369833876,41.746240949739594],[44.71876699045777,41.746316031818786]]]}},{"type":"Feature","properties":{"layer":"plot","cad":"72.16.21.844","adr_num":"","street":"კედრის II გასასვლელი","area":"450.00"},"geometry":{"type":"Polygon","coordinates":[[[44.718395399441725,41.74640205420631],[44.71832901956784,41.746258980173096],[44.718602354250045,41.7461530279875],[44.71867662439664,41.746311799763994],[44.718395399441725,41.74640205420631]]]}},{"type":"Feature","properties":{"layer":"plot","cad":"72.16.21.845","adr_num":"","street":"კედრის II გასასვლელი","area":"450.00"},"geometry":{"type":"Polygon","coordinates":[[[44.71846540052872,41.74655293717937],[44.718395399441725,41.74640205420631],[44.71867662439664,41.746311799763994],[44.71874699483379,41.74646223311991],[44.71846540052872,41.74655293717937]]]}},{"type":"Feature","properties":{"layer":"plot","cad":"72.16.21.849","adr_num":"","street":"კედრის IV გასასვლელი","area":"497.00"},"geometry":{"type":"Polygon","coordinates":[[[44.72043939018367,41.74607091388878],[44.72012064983805,41.746137489099084],[44.72006450887581,41.74599794924699],[44.720375762944094,41.7459000636609],[44.72043939018367,41.74607091388878]]]}},{"type":"Feature","properties":{"layer":"plot","cad":"72.16.21.850","adr_num":"","street":"კედრის ქუჩა","area":"500.00"},"geometry":{"type":"Polygon","coordinates":[[[44.72071279997538,41.74601380572221],[44.72043939018367,41.74607091388878],[44.720375762944094,41.7459000636609],[44.72063954588364,41.745817106308614],[44.72071279997538,41.74601380572221]]]}},{"type":"Feature","properties":{"layer":"plot","cad":"72.16.21.852","adr_num":"","street":"კედრის IV გასასვლელი","area":"503.00"},"geometry":{"type":"Polygon","coordinates":[[[44.72071996600879,41.7460683977875],[44.720974514578295,41.74601522967532],[44.72105463847606,41.746225562412725],[44.72078900964028,41.74625378936159],[44.72071996600879,41.7460683977875]]]}},{"type":"Feature","properties":{"layer":"building","osm_id":61725287},"geometry":{"type":"Polygon","coordinates":[[[44.715745,41.745178],[44.716538,41.744923],[44.716359,41.744614],[44.715567,41.744869],[44.715745,41.745178]]]}},{"type":"Feature","properties":{"layer":"building","osm_id":572325162},"geometry":{"type":"Polygon","coordinates":[[[44.719015,41.747683],[44.719149,41.747685],[44.719159,41.74736],[44.719184,41.74736],[44.719188,41.747227],[44.719153,41.747227],[44.719163,41.746898],[44.719036,41.746896],[44.719026,41.747218],[44.71899,41.747218],[44.718986,41.747363],[44.719025,41.747364],[44.719015,41.747683]]]}},{"type":"Feature","properties":{"layer":"building","osm_id":572325163},"geometry":{"type":"Polygon","coordinates":[[[44.718658,41.747679],[44.718808,41.747679],[44.71881,41.74737],[44.718829,41.74737],[44.71883,41.747225],[44.718809,41.747225],[44.718811,41.746898],[44.718665,41.746897],[44.718663,41.747224],[44.718616,41.747224],[44.718615,41.747358],[44.71866,41.747359],[44.718658,41.747679]]]}},{"type":"Feature","properties":{"layer":"building","osm_id":572325165},"geometry":{"type":"Polygon","coordinates":[[[44.718306,41.747672],[44.718443,41.747674],[44.718455,41.747367],[44.718485,41.747368],[44.71849,41.747225],[44.718462,41.747224],[44.718474,41.746899],[44.718328,41.746896],[44.718317,41.747205],[44.71829,41.747204],[44.718285,41.747359],[44.718318,41.74736],[44.718306,41.747672]]]}},{"type":"Feature","properties":{"layer":"building","osm_id":572325167},"geometry":{"type":"Polygon","coordinates":[[[44.717957,41.747674],[44.718091,41.747675],[44.718095,41.747357],[44.718128,41.747358],[44.71813,41.747211],[44.718097,41.74721],[44.718101,41.746889],[44.717967,41.746889],[44.717963,41.747221],[44.717925,41.747221],[44.717923,41.747354],[44.717961,41.747354],[44.717957,41.747674]]]}},{"type":"Feature","properties":{"layer":"building","osm_id":627398381},"geometry":{"type":"Polygon","coordinates":[[[44.719318,41.743819],[44.719246,41.743715],[44.719087,41.743777],[44.719159,41.743881],[44.719318,41.743819]]]}},{"type":"Feature","properties":{"layer":"building","osm_id":734558386},"geometry":{"type":"Polygon","coordinates":[[[44.719947,41.746746],[44.720063,41.746747],[44.720064,41.746686],[44.719947,41.746686],[44.719947,41.746746]]]}},{"type":"Feature","properties":{"layer":"building","osm_id":734558387},"geometry":{"type":"Polygon","coordinates":[[[44.720286,41.745187],[44.720348,41.745169],[44.720338,41.745151],[44.720427,41.745125],[44.720373,41.745023],[44.720222,41.745069],[44.720286,41.745187]]]}},{"type":"Feature","properties":{"layer":"building","osm_id":734558388},"geometry":{"type":"Polygon","coordinates":[[[44.717163,41.747165],[44.717864,41.747165],[44.717864,41.74688],[44.717164,41.74688],[44.717163,41.747165]]]}},{"type":"Feature","properties":{"layer":"building","osm_id":734558389},"geometry":{"type":"Polygon","coordinates":[[[44.719559,41.746905],[44.719489,41.746906],[44.719489,41.746882],[44.719446,41.746882],[44.719446,41.746906],[44.719361,41.746906],[44.719361,41.747014],[44.719442,41.747014],[44.719442,41.747031],[44.719488,41.747031],[44.719488,41.747012],[44.719576,41.747012],[44.719576,41.746976],[44.71956,41.746976],[44.719559,41.746905]]]}},{"type":"Feature","properties":{"layer":"building","osm_id":854163037},"geometry":{"type":"Polygon","coordinates":[[[44.721505,41.746741],[44.721474,41.746581],[44.721904,41.746535],[44.721934,41.746695],[44.721505,41.746741]]]}},{"type":"Feature","properties":{"layer":"building","osm_id":1290887773},"geometry":{"type":"Polygon","coordinates":[[[44.721432,41.74298],[44.721558,41.743068],[44.721637,41.743005],[44.721801,41.742874],[44.721892,41.742802],[44.721767,41.742714],[44.721432,41.74298]]]}},{"type":"Feature","properties":{"layer":"building","osm_id":1290887774},"geometry":{"type":"Polygon","coordinates":[[[44.722283,41.743038],[44.722154,41.742943],[44.722311,41.742824],[44.722501,41.74268],[44.72263,41.742775],[44.722485,41.742885],[44.722369,41.742973],[44.722283,41.743038]]]}},{"type":"Feature","properties":{"layer":"building","osm_id":1290887775},"geometry":{"type":"Polygon","coordinates":[[[44.72218,41.74312],[44.722055,41.743033],[44.721865,41.743185],[44.721716,41.743304],[44.72184,41.743391],[44.721952,41.743301],[44.72211,41.743175],[44.72218,41.74312]]]}},{"type":"Feature","properties":{"layer":"building","osm_id":1290887776},"geometry":{"type":"Polygon","coordinates":[[[44.722564,41.743133],[44.722691,41.743228],[44.722557,41.743327],[44.722425,41.743425],[44.722406,41.743439],[44.722264,41.743545],[44.722145,41.743633],[44.722018,41.743538],[44.722564,41.743133]]]}},{"type":"Feature","properties":{"layer":"building","osm_id":1290887777},"geometry":{"type":"Polygon","coordinates":[[[44.722612,41.743891],[44.722445,41.743765],[44.722801,41.743502],[44.722968,41.743627],[44.722612,41.743891]]]}},{"type":"Feature","properties":{"layer":"building","osm_id":1290887788},"geometry":{"type":"Polygon","coordinates":[[[44.721379,41.745586],[44.721331,41.745379],[44.721529,41.745237],[44.721701,41.745207],[44.721678,41.745131],[44.721323,41.745165],[44.721307,41.745079],[44.721252,41.745081],[44.72123,41.745006],[44.721667,41.744925],[44.722007,41.744708],[44.722093,41.744777],[44.722044,41.744816],[44.722123,41.744886],[44.72182,41.745101],[44.72185,41.74517],[44.722127,41.745109],[44.722216,41.745365],[44.722071,41.745388],[44.722104,41.745477],[44.721379,41.745586]]]}},{"type":"Feature","properties":{"layer":"building","osm_id":1290887790},"geometry":{"type":"Polygon","coordinates":[[[44.72245,41.744602],[44.722537,41.744675],[44.722619,41.744622],[44.722675,41.744669],[44.72277,41.744607],[44.722859,41.744682],[44.723074,41.74454],[44.722976,41.744457],[44.722793,41.744577],[44.72266,41.744464],[44.72245,41.744602]]]}},{"type":"Feature","properties":{"layer":"building","osm_id":1318507968},"geometry":{"type":"Polygon","coordinates":[[[44.717775,41.747686],[44.717853,41.747688],[44.717857,41.7476],[44.717779,41.747599],[44.717775,41.747686]]]}},{"type":"Feature","properties":{"layer":"building","osm_id":1318507970},"geometry":{"type":"Polygon","coordinates":[[[44.719512,41.74658],[44.719632,41.746572],[44.719616,41.746428],[44.719492,41.746437],[44.719512,41.74658]]]}},{"type":"Feature","properties":{"layer":"building","osm_id":1318507971},"geometry":{"type":"Polygon","coordinates":[[[44.719822,41.746138],[44.719843,41.746134],[44.719833,41.746095],[44.719858,41.746039],[44.719766,41.746015],[44.719747,41.74605],[44.719713,41.746055],[44.719713,41.746061],[44.719707,41.746062],[44.719721,41.746117],[44.719729,41.746116],[44.719745,41.746173],[44.719829,41.746161],[44.719822,41.746138]]]}},{"type":"Feature","properties":{"layer":"building","osm_id":1318507972},"geometry":{"type":"Polygon","coordinates":[[[44.719606,41.74625],[44.719734,41.746231],[44.7197,41.746111],[44.719573,41.74613],[44.719606,41.74625]]]}},{"type":"Feature","properties":{"layer":"building","osm_id":1318507973},"geometry":{"type":"Polygon","coordinates":[[[44.719439,41.746206],[44.71947,41.746321],[44.719527,41.746314],[44.719522,41.746298],[44.719599,41.746287],[44.719571,41.746185],[44.719439,41.746206]]]}},{"type":"Feature","properties":{"layer":"building","osm_id":1318507974},"geometry":{"type":"Polygon","coordinates":[[[44.719328,41.7463],[44.719386,41.746291],[44.719381,41.746272],[44.719436,41.746264],[44.719417,41.746193],[44.719324,41.746207],[44.719329,41.746223],[44.719307,41.746227],[44.719328,41.7463]]]}},{"type":"Feature","properties":{"layer":"building","osm_id":1318507975},"geometry":{"type":"Polygon","coordinates":[[[44.719772,41.745889],[44.719899,41.745861],[44.719854,41.745748],[44.719725,41.745777],[44.719772,41.745889]]]}},{"type":"Feature","properties":{"layer":"building","osm_id":1318507976},"geometry":{"type":"Polygon","coordinates":[[[44.719632,41.745945],[44.71971,41.745925],[44.719706,41.745915],[44.719774,41.745897],[44.719733,41.745812],[44.719671,41.745828],[44.719659,41.745803],[44.719575,41.745824],[44.719632,41.745945]]]}},{"type":"Feature","properties":{"layer":"building","osm_id":1318507977},"geometry":{"type":"Polygon","coordinates":[[[44.719498,41.746006],[44.719609,41.745976],[44.719554,41.74586],[44.719442,41.74589],[44.719498,41.746006]]]}},{"type":"Feature","properties":{"layer":"building","osm_id":1318507978},"geometry":{"type":"Polygon","coordinates":[[[44.719356,41.746058],[44.719463,41.74603],[44.719407,41.745912],[44.7193,41.745941],[44.719356,41.746058]]]}},{"type":"Feature","properties":{"layer":"building","osm_id":1318507979},"geometry":{"type":"Polygon","coordinates":[[[44.719189,41.746124],[44.719335,41.746083],[44.71932,41.746049],[44.719335,41.746045],[44.719305,41.745979],[44.71916,41.746016],[44.719189,41.746124]]]}},{"type":"Feature","properties":{"layer":"building","osm_id":1318507980},"geometry":{"type":"Polygon","coordinates":[[[44.719041,41.746175],[44.719178,41.746136],[44.719138,41.746055],[44.719001,41.746094],[44.719041,41.746175]]]}},{"type":"Feature","properties":{"layer":"building","osm_id":1318507981},"geometry":{"type":"Polygon","coordinates":[[[44.718795,41.746253],[44.718957,41.746212],[44.718924,41.746139],[44.718761,41.746181],[44.718795,41.746253]]]}},{"type":"Feature","properties":{"layer":"building","osm_id":1318507982},"geometry":{"type":"Polygon","coordinates":[[[44.719248,41.745754],[44.719294,41.745737],[44.719311,41.745763],[44.719431,41.745717],[44.719361,41.745616],[44.719192,41.745681],[44.719212,41.745711],[44.719217,41.745709],[44.719248,41.745754]]]}},{"type":"Feature","properties":{"layer":"building","osm_id":1318507983},"geometry":{"type":"Polygon","coordinates":[[[44.719155,41.745636],[44.719343,41.745564],[44.719297,41.745496],[44.719192,41.745537],[44.719159,41.74549],[44.719072,41.745523],[44.719114,41.745586],[44.719119,41.745584],[44.719155,41.745636]]]}},{"type":"Feature","properties":{"layer":"building","osm_id":1318507984},"geometry":{"type":"Polygon","coordinates":[[[44.718891,41.745744],[44.719067,41.745676],[44.719024,41.745614],[44.718991,41.745627],[44.718965,41.74559],[44.718822,41.745645],[44.718891,41.745744]]]}},{"type":"Feature","properties":{"layer":"building","osm_id":1318507985},"geometry":{"type":"Polygon","coordinates":[[[44.718609,41.745863],[44.718803,41.74579],[44.718775,41.745748],[44.718827,41.745728],[44.718808,41.7457],[44.718688,41.745743],[44.71869,41.745746],[44.718666,41.745755],[44.71866,41.745747],[44.718624,41.745761],[44.718629,41.745769],[44.718599,41.745781],[44.718605,41.745792],[44.718569,41.745806],[44.718609,41.745863]]]}},{"type":"Feature","properties":{"layer":"building","osm_id":1318507986},"geometry":{"type":"Polygon","coordinates":[[[44.718792,41.745977],[44.718928,41.745927],[44.718848,41.745811],[44.718714,41.745865],[44.718792,41.745977]]]}},{"type":"Feature","properties":{"layer":"building","osm_id":1318507987},"geometry":{"type":"Polygon","coordinates":[[[44.718388,41.746134],[44.718562,41.746068],[44.718523,41.746012],[44.718349,41.746079],[44.718388,41.746134]]]}},{"type":"Feature","properties":{"layer":"building","osm_id":1318507988},"geometry":{"type":"Polygon","coordinates":[[[44.71825,41.746014],[44.718503,41.745918],[44.718479,41.745882],[44.718476,41.745883],[44.718394,41.745915],[44.718304,41.745951],[44.718306,41.745954],[44.718273,41.745967],[44.718276,41.745973],[44.71824,41.745989],[44.71825,41.746014]]]}},{"type":"Feature","properties":{"layer":"building","osm_id":1318507989},"geometry":{"type":"Polygon","coordinates":[[[44.718231,41.745843],[44.718304,41.745951],[44.718394,41.745915],[44.718322,41.745807],[44.718231,41.745843]]]}},{"type":"Feature","properties":{"layer":"building","osm_id":1318507990},"geometry":{"type":"Polygon","coordinates":[[[44.71821,41.745839],[44.718332,41.745795],[44.718261,41.745693],[44.718193,41.745718],[44.718189,41.745714],[44.718146,41.745729],[44.718173,41.745766],[44.718165,41.745769],[44.71821,41.745839]]]}},{"type":"Feature","properties":{"layer":"building","osm_id":1318507991},"geometry":{"type":"Polygon","coordinates":[[[44.718218,41.745511],[44.718255,41.745565],[44.718361,41.745721],[44.718413,41.7457],[44.718334,41.745558],[44.718358,41.745548],[44.718322,41.745497],[44.718341,41.745489],[44.718327,41.745468],[44.718218,41.745511]]]}},{"type":"Feature","properties":{"layer":"building","osm_id":1318507992},"geometry":{"type":"Polygon","coordinates":[[[44.718042,41.745578],[44.718066,41.745613],[44.718173,41.745573],[44.718186,41.745591],[44.718255,41.745565],[44.718218,41.745511],[44.718042,41.745578]]]}},{"type":"Feature","properties":{"layer":"building","osm_id":1318507993},"geometry":{"type":"Polygon","coordinates":[[[44.719233,41.745114],[44.719361,41.745068],[44.719326,41.745014],[44.719198,41.74506],[44.719233,41.745114]]]}},{"type":"Feature","properties":{"layer":"building","osm_id":1318507994},"geometry":{"type":"Polygon","coordinates":[[[44.719197,41.745349],[44.719299,41.74531],[44.719294,41.745302],[44.719335,41.745286],[44.71925,41.745166],[44.719108,41.745219],[44.719197,41.745349]]]}},{"type":"Feature","properties":{"layer":"building","osm_id":1318507995},"geometry":{"type":"Polygon","coordinates":[[[44.718892,41.745254],[44.718984,41.745221],[44.718976,41.745207],[44.7191,41.745159],[44.719074,41.745121],[44.718926,41.745164],[44.718901,41.745126],[44.718826,41.745154],[44.71889,41.745251],[44.718892,41.745254]]]}},{"type":"Feature","properties":{"layer":"building","osm_id":1318507996},"geometry":{"type":"Polygon","coordinates":[[[44.718954,41.745348],[44.719105,41.745292],[44.719042,41.7452],[44.718984,41.745221],[44.718892,41.745254],[44.718954,41.745348]]]}},{"type":"Feature","properties":{"layer":"building","osm_id":1318507997},"geometry":{"type":"Polygon","coordinates":[[[44.71875,41.745495],[44.718843,41.745459],[44.718835,41.745446],[44.718892,41.745425],[44.718829,41.745329],[44.718675,41.745385],[44.718717,41.745447],[44.71875,41.745495]]]}},{"type":"Feature","properties":{"layer":"building","osm_id":1318507998},"geometry":{"type":"Polygon","coordinates":[[[44.718431,41.745428],[44.71846,41.74547],[44.718481,41.745462],[44.718537,41.745542],[44.718607,41.745517],[44.718602,41.745509],[44.718684,41.745477],[44.718675,41.745464],[44.718714,41.745448],[44.718717,41.745447],[44.718675,41.745385],[44.718662,41.745367],[44.7186,41.74539],[44.718583,41.745368],[44.718431,41.745428]]]}},{"type":"Feature","properties":{"layer":"building","osm_id":1318507999},"geometry":{"type":"Polygon","coordinates":[[[44.718052,41.74554],[44.718223,41.74548],[44.718162,41.745387],[44.717993,41.745447],[44.718052,41.74554]]]}},{"type":"Feature","properties":{"layer":"building","osm_id":1318508000},"geometry":{"type":"Polygon","coordinates":[[[44.717916,41.745205],[44.718083,41.745145],[44.718057,41.745105],[44.717982,41.745132],[44.717902,41.745011],[44.71789,41.745015],[44.717877,41.744994],[44.717804,41.745019],[44.71782,41.745042],[44.717812,41.745045],[44.717916,41.745205]]]}},{"type":"Feature","properties":{"layer":"building","osm_id":1318508001},"geometry":{"type":"Polygon","coordinates":[[[44.718168,41.745053],[44.718292,41.745009],[44.718231,41.744913],[44.718107,41.744957],[44.718168,41.745053]]]}},{"type":"Feature","properties":{"layer":"building","osm_id":1318508002},"geometry":{"type":"Polygon","coordinates":[[[44.718368,41.745034],[44.718423,41.745015],[44.718414,41.745002],[44.718482,41.744978],[44.71842,41.744883],[44.718301,41.744927],[44.718368,41.745034]]]}},{"type":"Feature","properties":{"layer":"building","osm_id":1318508003},"geometry":{"type":"Polygon","coordinates":[[[44.71854,41.744956],[44.718666,41.744911],[44.71861,41.744821],[44.718483,41.744867],[44.71854,41.744956]]]}},{"type":"Feature","properties":{"layer":"building","osm_id":1318508004},"geometry":{"type":"Polygon","coordinates":[[[44.718901,41.745023],[44.719068,41.744961],[44.719019,41.744886],[44.718852,41.744947],[44.718901,41.745023]]]}},{"type":"Feature","properties":{"layer":"building","osm_id":1318508005},"geometry":{"type":"Polygon","coordinates":[[[44.719167,41.744935],[44.719275,41.744899],[44.719227,41.744819],[44.719119,41.744855],[44.719167,41.744935]]]}},{"type":"Feature","properties":{"layer":"building","osm_id":1318508006},"geometry":{"type":"Polygon","coordinates":[[[44.716906,41.744613],[44.716937,41.744669],[44.717012,41.744646],[44.716981,41.744589],[44.716906,41.744613]]]}},{"type":"Feature","properties":{"layer":"building","osm_id":1318508008},"geometry":{"type":"Polygon","coordinates":[[[44.718697,41.744082],[44.718796,41.744045],[44.718767,41.744002],[44.718668,41.744039],[44.718697,41.744082]]]}},{"type":"Feature","properties":{"layer":"building","osm_id":1318508009},"geometry":{"type":"Polygon","coordinates":[[[44.717735,41.744197],[44.717781,41.744173],[44.717738,41.744129],[44.717693,41.744153],[44.717735,41.744197]]]}},{"type":"Feature","properties":{"layer":"building","osm_id":1318508010},"geometry":{"type":"Polygon","coordinates":[[[44.717829,41.74431],[44.717907,41.744281],[44.717848,41.744194],[44.717771,41.744223],[44.717829,41.74431]]]}},{"type":"Feature","properties":{"layer":"building","osm_id":1318508011},"geometry":{"type":"Polygon","coordinates":[[[44.718608,41.744644],[44.71864,41.744633],[44.71865,41.74465],[44.718732,41.744621],[44.718672,41.744527],[44.718528,41.744577],[44.71856,41.744626],[44.718589,41.744616],[44.718608,41.744644]]]}},{"type":"Feature","properties":{"layer":"building","osm_id":1318508012},"geometry":{"type":"Polygon","coordinates":[[[44.718823,41.744591],[44.718861,41.744577],[44.718866,41.744584],[44.718908,41.744569],[44.718903,41.744562],[44.718939,41.744548],[44.718871,41.744442],[44.718757,41.744485],[44.718823,41.744591]]]}},{"type":"Feature","properties":{"layer":"building","osm_id":1318508013},"geometry":{"type":"Polygon","coordinates":[[[44.719928,41.745175],[44.719831,41.745204],[44.719859,41.745255],[44.719896,41.745244],[44.719932,41.74531],[44.719991,41.745293],[44.719955,41.745226],[44.719928,41.745175]]]}},{"type":"Feature","properties":{"layer":"building","osm_id":1318508014},"geometry":{"type":"Polygon","coordinates":[[[44.720062,41.745112],[44.719917,41.745155],[44.719928,41.745175],[44.719955,41.745226],[44.719989,41.745216],[44.720013,41.745261],[44.720124,41.745228],[44.7201,41.745183],[44.720062,41.745112]]]}},{"type":"Feature","properties":{"layer":"building","osm_id":1318508015},"geometry":{"type":"Polygon","coordinates":[[[44.720062,41.745112],[44.7201,41.745183],[44.720159,41.745166],[44.720174,41.745193],[44.720259,41.745168],[44.720207,41.745069],[44.720062,41.745112]]]}},{"type":"Feature","properties":{"layer":"building","osm_id":1318508016},"geometry":{"type":"Polygon","coordinates":[[[44.720373,41.745023],[44.720427,41.745125],[44.720445,41.745157],[44.720587,41.745115],[44.720515,41.744981],[44.720373,41.745023]]]}},{"type":"Feature","properties":{"layer":"building","osm_id":1318508017},"geometry":{"type":"Polygon","coordinates":[[[44.720064,41.744878],[44.720289,41.744807],[44.720222,41.74469],[44.720157,41.744711],[44.720179,41.74475],[44.720021,41.744801],[44.720064,41.744878]]]}},{"type":"Feature","properties":{"layer":"building","osm_id":1318508018},"geometry":{"type":"Polygon","coordinates":[[[44.719804,41.744795],[44.719877,41.74493],[44.719998,41.744893],[44.719926,41.744759],[44.719804,41.744795]]]}},{"type":"Feature","properties":{"layer":"building","osm_id":1318508019},"geometry":{"type":"Polygon","coordinates":[[[44.71972,41.744977],[44.719877,41.74493],[44.719804,41.744795],[44.719647,41.744842],[44.71972,41.744977]]]}},{"type":"Feature","properties":{"layer":"building","osm_id":1318508020},"geometry":{"type":"Polygon","coordinates":[[[44.719713,41.744544],[44.719835,41.744479],[44.71975,41.744392],[44.719629,41.744455],[44.719713,41.744544]]]}},{"type":"Feature","properties":{"layer":"building","osm_id":1318508021},"geometry":{"type":"Polygon","coordinates":[[[44.719608,41.744228],[44.719738,41.74424],[44.719749,41.744176],[44.719619,41.744163],[44.719608,41.744228]]]}},{"type":"Feature","properties":{"layer":"building","osm_id":1318508022},"geometry":{"type":"Polygon","coordinates":[[[44.719529,41.744266],[44.719592,41.744277],[44.719636,41.744284],[44.719652,41.744235],[44.719608,41.744228],[44.719544,41.744217],[44.719529,41.744266]]]}},{"type":"Feature","properties":{"layer":"building","osm_id":1318508023},"geometry":{"type":"Polygon","coordinates":[[[44.719453,41.744291],[44.71958,41.744313],[44.719592,41.744277],[44.719529,41.744266],[44.719464,41.744255],[44.719453,41.744291]]]}},{"type":"Feature","properties":{"layer":"building","osm_id":1318508025},"geometry":{"type":"Polygon","coordinates":[[[44.719911,41.744219],[44.719994,41.744242],[44.720033,41.744166],[44.719949,41.744142],[44.719911,41.744219]]]}},{"type":"Feature","properties":{"layer":"building","osm_id":1318508026},"geometry":{"type":"Polygon","coordinates":[[[44.720305,41.744168],[44.720394,41.744215],[44.720456,41.74415],[44.720366,41.744103],[44.720305,41.744168]]]}},{"type":"Feature","properties":{"layer":"building","osm_id":1318508027},"geometry":{"type":"Polygon","coordinates":[[[44.719976,41.743077],[44.720319,41.742933],[44.720259,41.742854],[44.720048,41.742944],[44.719845,41.742675],[44.719767,41.742708],[44.719593,41.742781],[44.719644,41.74285],[44.719818,41.742776],[44.719969,41.742976],[44.719916,41.742999],[44.719976,41.743077]]]}},{"type":"Feature","properties":{"layer":"building","osm_id":1318508028},"geometry":{"type":"Polygon","coordinates":[[[44.720109,41.743318],[44.720449,41.743086],[44.720309,41.742971],[44.719969,41.743203],[44.720109,41.743318]]]}},{"type":"Feature","properties":{"layer":"building","osm_id":1473854244},"geometry":{"type":"Polygon","coordinates":[[[44.719079,41.745114],[44.719152,41.745086],[44.719186,41.745138],[44.719114,41.745165],[44.719079,41.745114]]]}},{"type":"Feature","properties":{"layer":"building","osm_id":1480118568},"geometry":{"type":"Polygon","coordinates":[[[44.720787,41.74349],[44.720912,41.743578],[44.720992,41.743515],[44.721156,41.743384],[44.721247,41.743312],[44.721121,41.743224],[44.720891,41.743407],[44.720787,41.74349]]]}},{"type":"Feature","properties":{"layer":"building","osm_id":1480118569},"geometry":{"type":"Polygon","coordinates":[[[44.72088,41.743976],[44.721006,41.744064],[44.721086,41.744001],[44.72125,41.743871],[44.721341,41.743798],[44.721215,41.74371],[44.72088,41.743976]]]}},{"type":"Feature","properties":{"layer":"building","osm_id":1480118570},"geometry":{"type":"Polygon","coordinates":[[[44.721327,41.743634],[44.721446,41.743719],[44.721616,41.743588],[44.721496,41.743502],[44.721327,41.743634]]]}},{"type":"Feature","properties":{"layer":"building","osm_id":1494194664},"geometry":{"type":"Polygon","coordinates":[[[44.721349,41.744108],[44.721483,41.744212],[44.721837,41.743936],[44.721716,41.74383],[44.721349,41.744108]]]}},{"type":"Feature","properties":{"layer":"building","osm_id":1494194665},"geometry":{"type":"Polygon","coordinates":[[[44.721933,41.744412],[44.721786,41.744296],[44.722161,41.744022],[44.722301,41.744134],[44.721933,41.744412]]]}},{"type":"Feature","properties":{"layer":"building","osm_id":1550149375},"geometry":{"type":"Polygon","coordinates":[[[44.716537,41.744609],[44.716587,41.744592],[44.716457,41.744374],[44.716766,41.744272],[44.716745,41.744236],[44.716386,41.744355],[44.716537,41.744609]]]}},{"type":"Feature","properties":{"layer":"road","osm_id":61725575,"class":"track"},"geometry":{"type":"LineString","coordinates":[[44.720768,41.74788],[44.720476,41.747898],[44.71996,41.748034],[44.71939,41.748229],[44.719179,41.748253],[44.719038,41.74827],[44.718579,41.748375],[44.718267,41.748459],[44.717576,41.748688],[44.716878,41.748936],[44.716031,41.74928],[44.715151,41.749592],[44.714828,41.749711],[44.714548,41.749809],[44.714182,41.749964],[44.713918,41.750049],[44.713571,41.75016]]}},{"type":"Feature","properties":{"layer":"road","osm_id":572325144,"class":"service"},"geometry":{"type":"LineString","coordinates":[[44.717599,41.744697],[44.717669,41.744904],[44.717708,41.744994],[44.717746,41.745077],[44.717783,41.745157],[44.717825,41.745247],[44.717869,41.745342],[44.717913,41.745436],[44.717961,41.74554],[44.718005,41.745634],[44.71803,41.745688],[44.718553,41.746841]]}},{"type":"Feature","properties":{"layer":"road","osm_id":572325145,"class":"service"},"geometry":{"type":"LineString","coordinates":[[44.716272,41.745119],[44.716396,41.745345],[44.71643,41.745408],[44.716483,41.745505],[44.716526,41.745582],[44.716567,41.745658],[44.716611,41.745738],[44.716659,41.745826],[44.716711,41.74592],[44.716767,41.74602],[44.716791,41.746064],[44.717054,41.746827]]}},{"type":"Feature","properties":{"layer":"road","osm_id":572325146,"class":"service"},"geometry":{"type":"LineString","coordinates":[[44.716718,41.744977],[44.716842,41.745023],[44.71696,41.745093],[44.717014,41.744982],[44.717101,41.744855]]}},{"type":"Feature","properties":{"layer":"road","osm_id":572325147,"class":"service"},"geometry":{"type":"LineString","coordinates":[[44.71696,41.745093],[44.717025,41.745214],[44.717075,41.745306],[44.717117,41.745383],[44.717162,41.745467],[44.71721,41.745556],[44.717261,41.745651],[44.717309,41.745737],[44.717365,41.745838]]}},{"type":"Feature","properties":{"layer":"road","osm_id":572325148,"class":"service"},"geometry":{"type":"LineString","coordinates":[[44.717365,41.745838],[44.718005,41.745634]]}},{"type":"Feature","properties":{"layer":"road","osm_id":572325149,"class":"service"},"geometry":{"type":"LineString","coordinates":[[44.717365,41.745838],[44.716767,41.74602]]}},{"type":"Feature","properties":{"layer":"road","osm_id":572325150,"class":"service"},"geometry":{"type":"LineString","coordinates":[[44.717309,41.745737],[44.717961,41.74554]]}},{"type":"Feature","properties":{"layer":"road","osm_id":572325151,"class":"service"},"geometry":{"type":"LineString","coordinates":[[44.717309,41.745737],[44.716711,41.74592]]}},{"type":"Feature","properties":{"layer":"road","osm_id":572325152,"class":"service"},"geometry":{"type":"LineString","coordinates":[[44.717261,41.745651],[44.717913,41.745436]]}},{"type":"Feature","properties":{"layer":"road","osm_id":572325153,"class":"service"},"geometry":{"type":"LineString","coordinates":[[44.717261,41.745651],[44.716659,41.745826]]}},{"type":"Feature","properties":{"layer":"road","osm_id":572325154,"class":"service"},"geometry":{"type":"LineString","coordinates":[[44.716611,41.745738],[44.71721,41.745556],[44.717869,41.745342]]}},{"type":"Feature","properties":{"layer":"road","osm_id":572325155,"class":"service"},"geometry":{"type":"LineString","coordinates":[[44.716567,41.745658],[44.717162,41.745467],[44.717825,41.745247]]}},{"type":"Feature","properties":{"layer":"road","osm_id":572325156,"class":"service"},"geometry":{"type":"LineString","coordinates":[[44.716526,41.745582],[44.717117,41.745383],[44.717783,41.745157]]}},{"type":"Feature","properties":{"layer":"road","osm_id":572325157,"class":"service"},"geometry":{"type":"LineString","coordinates":[[44.716483,41.745505],[44.717075,41.745306],[44.717746,41.745077]]}},{"type":"Feature","properties":{"layer":"road","osm_id":572325158,"class":"service"},"geometry":{"type":"LineString","coordinates":[[44.71643,41.745408],[44.717025,41.745214],[44.717708,41.744994]]}},{"type":"Feature","properties":{"layer":"road","osm_id":572325159,"class":"service"},"geometry":{"type":"LineString","coordinates":[[44.717054,41.746827],[44.718553,41.746841],[44.719277,41.746848],[44.72121,41.746828]]}},{"type":"Feature","properties":{"layer":"road","osm_id":572325160,"class":"service"},"geometry":{"type":"LineString","coordinates":[[44.717054,41.746827],[44.71715,41.747352],[44.71715,41.747704],[44.718598,41.747739],[44.719214,41.747743],[44.719277,41.746848]]}},{"type":"Feature","properties":{"layer":"road","osm_id":932335213,"class":"secondary"},"geometry":{"type":"LineString","coordinates":[[44.720257,41.743712],[44.720115,41.743783],[44.720056,41.743812],[44.719993,41.743844],[44.719622,41.74403],[44.719111,41.744216],[44.718943,41.74427],[44.718809,41.744312],[44.718156,41.74452],[44.717599,41.744697],[44.717268,41.744802],[44.717101,41.744855],[44.716718,41.744977],[44.716272,41.745119],[44.716075,41.745187],[44.715407,41.745394],[44.714312,41.745742],[44.713002,41.746154]]}},{"type":"Feature","properties":{"layer":"road","osm_id":986991727,"class":"residential"},"geometry":{"type":"LineString","coordinates":[[44.720257,41.743712],[44.720115,41.743534],[44.719694,41.743006],[44.719501,41.742764],[44.719405,41.742644]]}},{"type":"Feature","properties":{"layer":"road","osm_id":986991728,"class":"residential"},"geometry":{"type":"LineString","coordinates":[[44.720744,41.743323],[44.720593,41.743135],[44.720139,41.742707],[44.719815,41.742269],[44.71958,41.741969]]}},{"type":"Feature","properties":{"layer":"road","osm_id":986991733,"class":"residential"},"geometry":{"type":"LineString","coordinates":[[44.719622,41.74403],[44.719464,41.743819],[44.719053,41.743271]]}},{"type":"Feature","properties":{"layer":"road","osm_id":986991734,"class":"track"},"geometry":{"type":"LineString","coordinates":[[44.717267,41.742623],[44.717905,41.742902],[44.718062,41.74297],[44.718656,41.743052],[44.718908,41.743156],[44.719053,41.743271]]}},{"type":"Feature","properties":{"layer":"road","osm_id":986991745,"class":"service"},"geometry":{"type":"LineString","coordinates":[[44.716718,41.744977],[44.716625,41.744843],[44.716322,41.744329],[44.715248,41.744067]]}},{"type":"Feature","properties":{"layer":"road","osm_id":986991749,"class":"service"},"geometry":{"type":"LineString","coordinates":[[44.718156,41.74452],[44.717854,41.744125]]}},{"type":"Feature","properties":{"layer":"road","osm_id":1047424842,"class":"residential"},"geometry":{"type":"LineString","coordinates":[[44.718943,41.74427],[44.719189,41.744518],[44.719441,41.744791],[44.719503,41.744856],[44.719602,41.744976],[44.71969,41.7451],[44.71974,41.745225],[44.719819,41.745437],[44.719902,41.745621],[44.719978,41.745857],[44.719972,41.745905],[44.71994,41.745998],[44.719922,41.746049],[44.719836,41.746218],[44.719742,41.746279],[44.719304,41.746448]]}},{"type":"Feature","properties":{"layer":"road","osm_id":1047424843,"class":"residential"},"geometry":{"type":"LineString","coordinates":[[44.719503,41.744856],[44.718254,41.745301],[44.718024,41.74493],[44.719189,41.744518]]}},{"type":"Feature","properties":{"layer":"road","osm_id":1047424844,"class":"residential"},"geometry":{"type":"LineString","coordinates":[[44.71974,41.745225],[44.71843,41.745734],[44.718657,41.746086],[44.719902,41.745621]]}},{"type":"Feature","properties":{"layer":"road","osm_id":1047424846,"class":"residential"},"geometry":{"type":"LineString","coordinates":[[44.718657,41.746086],[44.718625,41.746097],[44.718376,41.746191]]}},{"type":"Feature","properties":{"layer":"road","osm_id":1047424847,"class":"residential"},"geometry":{"type":"LineString","coordinates":[[44.719304,41.746448],[44.719245,41.74621],[44.719259,41.746165],[44.719972,41.745905]]}},{"type":"Feature","properties":{"layer":"road","osm_id":1047424848,"class":"service"},"geometry":{"type":"LineString","coordinates":[[44.718625,41.746097],[44.718797,41.74645],[44.718894,41.746508],[44.719029,41.746534],[44.719304,41.746448]]}},{"type":"Feature","properties":{"layer":"road","osm_id":1047424849,"class":"residential"},"geometry":{"type":"LineString","coordinates":[[44.71969,41.7451],[44.720649,41.744792]]}},{"type":"Feature","properties":{"layer":"road","osm_id":1064760039,"class":"path"},"geometry":{"type":"LineString","coordinates":[[44.720018,41.746485],[44.720746,41.746366],[44.721576,41.746273]]}},{"type":"Feature","properties":{"layer":"road","osm_id":1064760040,"class":"path"},"geometry":{"type":"LineString","coordinates":[[44.720746,41.746366],[44.720608,41.745983],[44.720552,41.745879],[44.720466,41.745829],[44.720425,41.745813],[44.720021,41.745685],[44.719902,41.745621]]}},{"type":"Feature","properties":{"layer":"road","osm_id":1182113693,"class":"track"},"geometry":{"type":"LineString","coordinates":[[44.718478,41.750095],[44.718977,41.749836],[44.719499,41.749442],[44.719778,41.749293],[44.72013,41.748804],[44.720428,41.748306],[44.720628,41.748012],[44.720768,41.74788],[44.721452,41.747743]]}},{"type":"Feature","properties":{"layer":"road","osm_id":1382315202,"class":"residential"},"geometry":{"type":"LineString","coordinates":[[44.721746,41.743091],[44.721916,41.742961],[44.722204,41.742739],[44.722426,41.742565],[44.722619,41.742451],[44.722732,41.742399],[44.722761,41.742322],[44.722767,41.742255],[44.722772,41.742199]]}},{"type":"Feature","properties":{"layer":"road","osm_id":1395469725,"class":"footway"},"geometry":{"type":"LineString","coordinates":[[44.721092,41.743033],[44.721134,41.743067],[44.721159,41.743087],[44.72123,41.743121],[44.721244,41.743128],[44.721315,41.743153],[44.721351,41.743166],[44.721372,41.743174],[44.721434,41.743204],[44.721471,41.743239],[44.721528,41.743271],[44.721569,41.74329],[44.721625,41.743305],[44.721638,41.743313],[44.721649,41.74332]]}},{"type":"Feature","properties":{"layer":"road","osm_id":1395469726,"class":"footway"},"geometry":{"type":"LineString","coordinates":[[44.72123,41.743121],[44.721322,41.743045],[44.721568,41.742844],[44.721877,41.742591],[44.721997,41.742515],[44.722173,41.742407],[44.722288,41.742376],[44.722395,41.742357],[44.722363,41.742423],[44.72228,41.742533],[44.722118,41.742672],[44.722204,41.742739],[44.722311,41.742824]]}},{"type":"Feature","properties":{"layer":"road","osm_id":1395469727,"class":"footway"},"geometry":{"type":"LineString","coordinates":[[44.721637,41.743005],[44.721696,41.743051],[44.721746,41.743091],[44.721865,41.743185]]}},{"type":"Feature","properties":{"layer":"road","osm_id":1395469728,"class":"footway"},"geometry":{"type":"LineString","coordinates":[[44.721471,41.743239],[44.721618,41.743116],[44.721696,41.743051]]}},{"type":"Feature","properties":{"layer":"road","osm_id":1395469729,"class":"footway"},"geometry":{"type":"LineString","coordinates":[[44.721638,41.743313],[44.721732,41.743235],[44.721742,41.743209],[44.721742,41.743179],[44.721722,41.743145],[44.721688,41.743127],[44.721618,41.743116]]}},{"type":"Feature","properties":{"layer":"road","osm_id":1395469730,"class":"footway"},"geometry":{"type":"LineString","coordinates":[[44.721351,41.743166],[44.721395,41.743125],[44.721408,41.743108],[44.721401,41.743085],[44.721389,41.743068],[44.72136,41.743051],[44.721322,41.743045]]}},{"type":"Feature","properties":{"layer":"road","osm_id":1395469735,"class":"residential"},"geometry":{"type":"LineString","coordinates":[[44.719441,41.744791],[44.720455,41.744471]]}},{"type":"Feature","properties":{"layer":"road","osm_id":1444853423,"class":"service"},"geometry":{"type":"LineString","coordinates":[[44.719902,41.745621],[44.720047,41.745652],[44.720315,41.745639],[44.720541,41.745589],[44.720731,41.745543],[44.720834,41.745505],[44.721187,41.745495]]}},{"type":"Feature","properties":{"layer":"road","osm_id":1480118571,"class":"residential"},"geometry":{"type":"LineString","coordinates":[[44.722732,41.742399],[44.72274,41.742637],[44.722736,41.742945],[44.722738,41.743016],[44.722756,41.743297],[44.722752,41.743338],[44.722731,41.743375],[44.722681,41.743414],[44.722535,41.743529],[44.722398,41.743637],[44.722317,41.7437]]}},{"type":"Feature","properties":{"layer":"road","osm_id":1480118572,"class":"footway"},"geometry":{"type":"LineString","coordinates":[[44.722736,41.742945],[44.722637,41.743002],[44.722521,41.743087],[44.722258,41.74328],[44.722089,41.743405],[44.721986,41.743481]]}},{"type":"Feature","properties":{"layer":"road","osm_id":1480118573,"class":"footway"},"geometry":{"type":"LineString","coordinates":[[44.722089,41.743405],[44.721952,41.743301]]}},{"type":"Feature","properties":{"layer":"road","osm_id":1480118574,"class":"footway"},"geometry":{"type":"LineString","coordinates":[[44.722258,41.74328],[44.72211,41.743175]]}},{"type":"Feature","properties":{"layer":"road","osm_id":1480118575,"class":"footway"},"geometry":{"type":"LineString","coordinates":[[44.722521,41.743087],[44.722369,41.742973]]}},{"type":"Feature","properties":{"layer":"road","osm_id":1480118579,"class":"footway"},"geometry":{"type":"LineString","coordinates":[[44.722398,41.743637],[44.722264,41.743545]]}},{"type":"Feature","properties":{"layer":"road","osm_id":1480118581,"class":"footway"},"geometry":{"type":"LineString","coordinates":[[44.722406,41.743439],[44.722535,41.743529]]}},{"type":"Feature","properties":{"layer":"road","osm_id":1494194666,"class":"footway"},"geometry":{"type":"LineString","coordinates":[[44.721649,41.74332],[44.721671,41.743344],[44.721651,41.74337],[44.721614,41.743412],[44.721629,41.743448],[44.721671,41.743467],[44.721714,41.743464],[44.721778,41.743441],[44.721828,41.74346],[44.721849,41.743492],[44.721848,41.743554],[44.721848,41.743567],[44.721851,41.743602],[44.721882,41.743629],[44.721945,41.743615],[44.721992,41.743602],[44.722047,41.74361],[44.722072,41.743623],[44.722061,41.743655],[44.722026,41.743688],[44.722024,41.743739],[44.722059,41.743771],[44.722142,41.743763],[44.722208,41.743743],[44.722245,41.743744],[44.722277,41.743757],[44.722308,41.7438],[44.722314,41.74387],[44.722317,41.743931],[44.722352,41.743959],[44.722398,41.743957],[44.722466,41.743934],[44.722517,41.743949],[44.722528,41.743983],[44.722495,41.744037],[44.722505,41.744078],[44.722554,41.744091],[44.722598,41.744076],[44.722754,41.743961],[44.722907,41.743835],[44.723067,41.743725],[44.723105,41.743727],[44.723126,41.743756],[44.723073,41.743868],[44.723008,41.744021],[44.722928,41.744124],[44.722862,41.744192],[44.722678,41.744303],[44.722534,41.744385],[44.722358,41.744268],[44.722598,41.744076]]}},{"type":"Feature","properties":{"layer":"road","osm_id":1494194667,"class":"secondary"},"geometry":{"type":"LineString","coordinates":[[44.721145,41.742989],[44.721092,41.743033],[44.720744,41.743323],[44.720391,41.743622],[44.720257,41.743712]]}},{"type":"Feature","properties":{"layer":"road","osm_id":1494194669,"class":"residential"},"geometry":{"type":"LineString","coordinates":[[44.720115,41.743783],[44.720541,41.744072],[44.720588,41.744061],[44.72091,41.743804],[44.721431,41.743389]]}},{"type":"Feature","properties":{"layer":"road","osm_id":1494194670,"class":"footway"},"geometry":{"type":"LineString","coordinates":[[44.721848,41.743554],[44.721034,41.744186]]}},{"type":"Feature","properties":{"layer":"road","osm_id":1494194671,"class":"footway"},"geometry":{"type":"LineString","coordinates":[[44.72091,41.743804],[44.720806,41.743718],[44.720694,41.743792],[44.720595,41.743833],[44.720487,41.743857],[44.720458,41.743839],[44.720471,41.743757],[44.720542,41.743663],[44.720804,41.743448],[44.721135,41.743194],[44.72123,41.743121]]}},{"type":"Feature","properties":{"layer":"road","osm_id":1494194672,"class":"footway"},"geometry":{"type":"LineString","coordinates":[[44.721135,41.743194],[44.72109,41.74319],[44.721053,41.743158],[44.72107,41.74312],[44.721134,41.743067]]}},{"type":"Feature","properties":{"layer":"road","osm_id":1494194673,"class":"footway"},"geometry":{"type":"LineString","coordinates":[[44.721351,41.743166],[44.72126,41.743246],[44.72126,41.743278],[44.721294,41.743307],[44.721349,41.743318],[44.721401,41.743297],[44.721424,41.743278],[44.721471,41.743239]]}},{"type":"Feature","properties":{"layer":"road","osm_id":1494194674,"class":"footway"},"geometry":{"type":"LineString","coordinates":[[44.721431,41.743389],[44.721446,41.743336],[44.721437,41.743302],[44.721424,41.743278]]}},{"type":"Feature","properties":{"layer":"road","osm_id":1494194679,"class":"service"},"geometry":{"type":"LineString","coordinates":[[44.720143,41.743879],[44.720061,41.744039],[44.719832,41.744188],[44.719645,41.744353]]}},{"type":"Feature","properties":{"layer":"road","osm_id":1550149377,"class":"service"},"geometry":{"type":"LineString","coordinates":[[44.717268,41.744802],[44.717054,41.744492],[44.71684,41.744249]]}}]}