{"type": "FeatureCollection", "attribution": "ქუჩები: საჯარო რეესტრის ეროვნული სააგენტო — სამისამართო რეესტრი (AR_LN_STREETS), tas.ge / ms.gov.ge", "features": [{"type": "Feature", "properties": {"name": "კედრის ქუჩა", "class": "residential", "name_src": "napr", "length_m": 207}, "geometry": {"type": "LineString", "coordinates": [[44.7189452, 41.7442294], [44.7191828, 41.7445146], [44.7195555, 41.7449409], [44.7196676, 41.7450884], [44.7197207, 41.7451874], [44.7199861, 41.7459141]]}}, {"type": "Feature", "properties": {"name": "კედრის I გასასვლელი", "class": "residential", "name_src": "napr", "length_m": 253}, "geometry": {"type": "LineString", "coordinates": [[44.7194594, 41.7448599], [44.718319, 41.7452755], [44.718266, 41.7452737], [44.718225, 41.7452494], [44.7180586, 41.7449831], [44.7180514, 41.7449498], [44.718055, 41.74493], [44.7180647, 41.7449201], [44.7191388, 41.7445243]]}}, {"type": "Feature", "properties": {"name": "კედრის II გასასვლელი", "class": "residential", "name_src": "napr", "length_m": 144}, "geometry": {"type": "LineString", "coordinates": [[44.7198712, 41.7456269], [44.7183251, 41.7462096]]}}, {"type": "Feature", "properties": {"name": "კედრის III გასასვლელი", "class": "residential", "name_src": "napr", "length_m": 72}, "geometry": {"type": "LineString", "coordinates": [[44.7199792, 41.7458934], [44.7192121, 41.7461894]]}}, {"type": "Feature", "properties": {"name": "კედრის IV გასასვლელი", "class": "residential", "name_src": "napr", "length_m": 90}, "geometry": {"type": "LineString", "coordinates": [[44.7192886, 41.7464633], [44.7197399, 41.7462914], [44.7198123, 41.7462554], [44.71984, 41.746232], [44.7198678, 41.746187], [44.719986, 41.7459144]]}}, {"type": "Feature", "properties": {"name": "კედრის I შესახვევი", "class": "residential", "name_src": "napr", "length_m": 163}, "geometry": {"type": "LineString", "coordinates": [[44.7197304, 41.7452289], [44.7195351, 41.7453099], [44.7193614, 41.7453666], [44.7190419, 41.7454961], [44.7185029, 41.7456949], [44.7184776, 41.7457093], [44.7184571, 41.7457372], [44.7184547, 41.7457642], [44.71865, 41.7460872]]}}, {"type": "Feature", "properties": {"name": "კედრის I ჩიხი", "class": "residential", "name_src": "napr", "length_m": 75}, "geometry": {"type": "LineString", "coordinates": [[44.7196737, 41.7451042], [44.7199812, 41.7450115], [44.7205083, 41.744836]]}}, {"type": "Feature", "properties": {"name": "ლეო კვაჭაძის ქუჩა", "class": "secondary", "name_src": "napr", "length_m": 863}, "geometry": {"type": "LineString", "coordinates": [[44.724, 41.7423655], [44.7230346, 41.7422348], [44.7225584, 41.7421949], [44.7224631, 41.7421914], [44.7223052, 41.7421949], [44.7222215, 41.7422088], [44.7221333, 41.7422348], [44.722052, 41.7422712], [44.7218336, 41.7424047], [44.7213178, 41.7428], [44.7204978, 41.7434744], [44.7203421, 41.7435923], [44.720212, 41.7436807], [44.7200541, 41.7437778], [44.7199333, 41.7438419], [44.7197892, 41.7439095], [44.7196847, 41.7439563], [44.7191434, 41.7441609], [44.7179516, 41.7445579], [44.7157795, 41.7452652], [44.715, 41.7455113]]}}]}